NORAD_CAT_ID,OBJECT_NAME,OBJECT_TYPE,EPOCH,MEAN_MOTION,ECCENTRICITY,INCLINATION,RA_OF_ASC_NODE,ARG_OF_PERICENTER,MEAN_ANOMALY,BSTAR,MEAN_MOTION_DOT,MEAN_MOTION_DDOT,TLE_LINE0,TLE_LINE1,TLE_LINE2,SEMIMAJOR_AXIS,PERIOD,APOGEE,PERIGEE,DECAYED
52292.0,STARLINK-3753,PAYLOAD,2022-11-03 22:50:09,15.08848205,0.0001553,53.2178,183.7091,72.8621,287.2541,7.7414e-05,9.45e-06,0.0,0 STARLINK-3753,1 52292U 22041AH  22307.95150220  .00000945  00000-0  77414-4 0  9992,2 52292  53.2178 183.7091 0001553  72.8621 287.2541 15.08848205 31281,6917.855,95.437,540.795,538.646,0.0
52292.0,STARLINK-3753,PAYLOAD,2022-11-04 08:22:28,15.08853728,0.0001842,53.2167,181.9293,53.7113,306.4049,5.0451e-05,5.15e-06,0.0,0 STARLINK-3753,1 52292U 22041AH  22308.34893854  .00000515  00000-0  50451-4 0  9998,2 52292  53.2167 181.9293 0001842  53.7113 306.4049 15.08853728 30123,6917.8380000000025,95.437,540.9780000000002,538.429,0.0
52292.0,STARLINK-3753,PAYLOAD,2022-11-04 17:54:48,15.08835444,0.0001409,53.2173,180.1448,65.0215,295.0923,4.1e-05,3.65e-06,0.0,0 STARLINK-3753,1 52292U 22041AH  22308.74638976  .00000365  00000-0  41000-4 0  9997,2 52292  53.2173 180.1448 0001409  65.0215 295.0923 15.08835444 31402,6917.894,95.438,540.734,538.785,0.0
52292.0,STARLINK-3753,PAYLOAD,2022-11-05 09:48:39,15.08833893,0.0001267,53.2172,177.1702,74.1051,286.008,-5.496e-05,-1.162e-05,0.0,0 STARLINK-3753,1 52292U 22041AH  22309.40879291 -.00001162  00000-0 -54960-4 0  9995,2 52292  53.2172 177.1702 0001267  74.1051 286.0080 15.08833893 30286,6917.899,95.438,540.641,538.888,0.0
52292.0,STARLINK-3753,PAYLOAD,2022-11-05 17:45:37,15.08819873,0.0001188,53.2181,175.68200000000004,68.869,291.2429,-0.00027165,-4.606e-05,0.0,0 STARLINK-3753,1 52292U 22041AH  22309.74001214 -.00004606  00000-0 -27165-3 0  9996,2 52292  53.2181 175.6820 0001188  68.8690 291.2429 15.08819873 31559,6917.941999999999,95.439,540.629,538.985,0.0
52292.0,STARLINK-3753,PAYLOAD,2022-11-06 09:39:28,15.08828441,0.0001313,53.2176,172.7099,64.1621,295.9506,-0.00015732,-2.79e-05,0.0,0 STARLINK-3753,1 52292U 22041AH  22310.40241078 -.00002790  00000-0 -15732-3 0  9994,2 52292  53.2176 172.7099 0001313  64.1621 295.9506 15.08828441 31651,6917.916,95.438,540.689,538.872,0.0
52292.0,STARLINK-3753,PAYLOAD,2022-11-06 23:57:56,15.08831807,0.0001382,53.2173,170.0333,64.8852,295.2284,3.015e-05,1.92e-06,0.0,0 STARLINK-3753,1 52292U 22041AH  22310.99856676  .00000192  00000-0  30150-4 0  9998,2 52292  53.2173 170.0333 0001382  64.8852 295.2284 15.08831807 31745,6917.905,95.438,540.726,538.814,0.0
52292.0,STARLINK-3753,PAYLOAD,2022-11-07 20:37:57,15.08820026,0.0001374,53.2177,166.1676,47.0215,313.0892,0.00015609,2.196e-05,0.0,0 STARLINK-3753,1 52292U 22041AH  22311.85969577  .00002196  00000-0  15609-3 0  9996,2 52292  53.2177 166.1676 0001374  47.0215 313.0892 15.08820026 31871,6917.941,95.439,540.757,538.856,0.0
52292.0,STARLINK-3753,PAYLOAD,2022-11-08 07:45:39,15.08837359,0.0001597,53.2175,164.0859,61.5898,298.5255,0.00016161,2.285e-05,0.0,0 STARLINK-3753,1 52292U 22041AH  22312.32336817  .00002285  00000-0  16161-3 0  9997,2 52292  53.2175 164.0859 0001597  61.5898 298.5255 15.08837359 31949,6917.888000000001,95.438,540.8580000000002,538.649,0.0
52292.0,STARLINK-3753,PAYLOAD,2022-11-08 09:21:01,15.08840518,0.0001549,53.2175,163.7891,57.021,303.0931,0.00018873,2.717e-05,0.0,0 STARLINK-3753,1 52292U 22041AH  22312.38960522  .00002717  00000-0  18873-3 0  9991,2 52292  53.2175 163.7891 0001549  57.0210 303.0931 15.08840518 30736,6917.879,95.438,540.815,538.672,0.0
52292.0,STARLINK-3753,PAYLOAD,2022-11-08 15:42:33,15.08851082,0.0001606,53.2174,162.5996,57.9263,302.1885,0.00017196,2.451e-05,0.0,0 STARLINK-3753,1 52292U 22041AH  22312.65455838  .00002451  00000-0  17196-3 0  9992,2 52292  53.2174 162.5996 0001606  57.9263 302.1885 15.08851082 31994,6917.847,95.437,540.823,538.601,0.0
52292.0,STARLINK-3753,PAYLOAD,2022-11-09 09:11:47,15.08863306,0.0001704,53.2172,159.3287,56.6912,303.4243,0.00012732,1.74e-05,0.0,0 STARLINK-3753,1 52292U 22041AH  22313.38318423  .00001740  00000-0  12732-3 0  9992,2 52292  53.2172 159.3287 0001704  56.6912 303.4243 15.08863306 30886,6917.809,95.436,540.8530000000002,538.495,0.0
52292.0,STARLINK-3753,PAYLOAD,2022-11-09 20:19:31,15.08835653,0.0002018,53.2148,157.2456,68.3653,291.7554,-0.00030707,-5.171e-05,0.0,0 STARLINK-3753,1 52292U 22041AH  22313.84689361 -.00005171  00000-0 -30707-3 0  9991,2 52292  53.2148 157.2456 0002018  68.3653 291.7554 15.08835653 32177,6917.894,95.438,541.155,538.363,0.0
52292.0,STARLINK-3753,PAYLOAD,2022-11-10 09:02:36,15.08835343,0.0001555,53.217,154.8681,59.5222,300.5923,-0.00012144,-2.22e-05,0.0,0 STARLINK-3753,1 52292U 22041AH  22314.37681258 -.00002220  00000-0 -12144-3 0  9994,2 52292  53.2170 154.8681 0001555  59.5222 300.5923 15.08835343 31033,6917.895,95.438,540.835,538.684,0.0
52292.0,STARLINK-3753,PAYLOAD,2022-11-10 18:34:55,15.08841798,0.0001568,53.2174,153.0843,57.8582,302.2562,-0.00011257,-2.079e-05,0.0,0 STARLINK-3753,1 52292U 22041AH  22314.77424811 -.00002079  00000-0 -11257-3 0  9994,2 52292  53.2174 153.0843 0001568  57.8582 302.2562 15.08841798 32313,6917.875,95.437,540.825,538.655,0.0
52292.0,STARLINK-3753,PAYLOAD,2022-11-10 20:10:17,15.08843751,0.0001412,53.2176,152.7871,61.0846,299.0288,-0.00011345,-2.093e-05,0.0,0 STARLINK-3753,1 52292U 22041AH  22314.84048611 -.00002093  00000-0 -11345-3 0  9996,2 52292  53.2176 152.7871 0001412  61.0846 299.0288 15.08843751 31105,6917.869000000002,95.437,540.711,538.757,0.0
52292.0,STARLINK-3753,PAYLOAD,2022-11-11 08:53:22,15.08827137,0.0001537,53.2174,150.4075,43.5814,316.53,0.00014496,2.019e-05,0.0,0 STARLINK-3753,1 52292U 22041AH  22315.37040387  .00002019  00000-0  14496-3 0  9993,2 52292  53.2174 150.4075 0001537  43.5814 316.5300 15.08827137 31180,6917.92,95.438,540.8480000000002,538.721,0.0
52292.0,STARLINK-3753,PAYLOAD,2022-11-11 20:01:04,15.08830312,0.0001440999999999,53.2173,148.326,58.9491,301.1643,0.00011974,1.618e-05,0.0,0 STARLINK-3753,1 52292U 22041AH  22315.83408539  .00001618  00000-0  11974-3 0  9993,2 52292  53.2173 148.3260 0001441  58.9491 301.1643 15.08830312 31253,6917.91,95.438,540.7719999999998,538.778,0.0
52292.0,STARLINK-3753,PAYLOAD,2022-11-11 23:11:51,15.08821995,0.0001716,53.2176,147.7344,46.8181,313.2954,0.00017857,2.554e-05,0.0,0 STARLINK-3753,1 52292U 22041AH  22315.96657076  .00002554  00000-0  17857-3 0  9995,2 52292  53.2176 147.7344 0001716  46.8181 313.2954 15.08821995 32492,6917.935,95.439,540.988,538.613,0.0
52292.0,STARLINK-3753,PAYLOAD,2022-11-12 08:44:11,15.08829372,0.0001576999999999,53.2172,145.9472,61.5678,298.5473,-2.0839e-05,-6.2e-06,0.0,0 STARLINK-3753,1 52292U 22041AH  22316.36401688 -.00000620  00000-0 -20839-4 0  9995,2 52292  53.2172 145.9472 0001577  61.5678 298.5473 15.08829372 31330,6917.913000000001,95.438,540.869,538.687,0.0
52292.0,STARLINK-3753,PAYLOAD,2022-11-12 21:27:16,15.08834073,0.0001593,53.2174,143.56799999999996,60.2068,299.9083,1.3122e-05,-7.9e-07,0.0,0 STARLINK-3753,1 52292U 22041AH  22316.89393533 -.00000079  00000-0  13122-4 0  9996,2 52292  53.2174 143.5680 0001593  60.2068 299.9083 15.08834073 31419,6917.899,95.438,540.866,538.661,0.0
52292.0,STARLINK-3753,PAYLOAD,2022-11-13 10:10:20,15.08838789,0.0001619,53.2173,141.189,61.253,298.8624,2.3051e-05,7.9e-07,0.0,0 STARLINK-3753,1 52292U 22041AH  22317.42385342  .00000079  00000-0  23051-4 0  9996,2 52292  53.2173 141.1890 0001619  61.2530 298.8624 15.08838789 32710,6917.884,95.438,540.869,538.629,0.0
52292.0,STARLINK-3753,PAYLOAD,2022-11-13 18:07:16,15.08841333,0.0001631,53.2173,139.7022,61.5393,298.5764,2.410000000000001e-05,9.6e-07,0.0,0 STARLINK-3753,1 52292U 22041AH  22317.75505193  .00000096  00000-0  24100-4 0  9995,2 52292  53.2173 139.7022 0001631  61.5393 298.5764 15.08841333 31545,6917.876,95.437,540.87,538.613,0.0
52292.0,STARLINK-3753,PAYLOAD,2022-11-14 06:50:21,15.08839751,0.0001688,53.2174,137.3233,61.6407,298.4755,0.00012326,1.674e-05,0.0,0 STARLINK-3753,1 52292U 22041AH  22318.28496960  .00001674  00000-0  12326-3 0  9994,2 52292  53.2174 137.3233 0001688  61.6407 298.4755 15.08839751 31622,6917.880999999999,95.438,540.914,538.578,0.0
52292.0,STARLINK-3753,PAYLOAD,2022-11-14 17:58:02,15.08845088,0.0001704,53.2174,135.2415,62.0917,298.0248,0.00010846,1.439e-05,0.0,0 STARLINK-3753,1 52292U 22041AH  22318.74864571  .00001439  00000-0  10846-3 0  9996,2 52292  53.2174 135.2415 0001704  62.0917 298.0248 15.08845088 32917,6917.865,95.437,540.909,538.5509999999998,0.0
52292.0,STARLINK-3753,PAYLOAD,2022-11-15 05:05:45,15.08835857,0.00017,53.2176,133.1604,61.4236,298.6927,-9.6871e-06,-4.42e-06,0.0,0 STARLINK-3753,1 52292U 22041AH  22319.21233569 -.00000442  00000-0 -96871-5 0  9995,2 52292  53.2176 133.1604 0001700  61.4236 298.6927 15.08835857 32989,6917.893,95.438,540.934,538.582,0.0
52292.0,STARLINK-3753,PAYLOAD,2022-11-15 11:27:18,15.08838742,0.0001702,53.2177,131.971,61.3725,298.7438,-2.5566e-06,-3.29e-06,0.0,0 STARLINK-3753,1 52292U 22041AH  22319.47729402 -.00000329  00000-0 -25566-5 0  9996,2 52292  53.2177 131.9710 0001702  61.3725 298.7438 15.08838742 31802,6917.884,95.438,540.927,538.572,0.0
52292.0,STARLINK-3753,PAYLOAD,2022-11-15 17:48:50,15.08840954,0.0001695,53.2177,130.7816,61.2025,298.9138,6.4178e-06,-1.86e-06,0.0,0 STARLINK-3753,1 52292U 22041AH  22319.74225199 -.00000186  00000-0  64178-5 0  9992,2 52292  53.2177 130.7816 0001695  61.2025 298.9138 15.08840954 31840,6917.877,95.437,540.915,538.57,0.0
52292.0,STARLINK-3753,PAYLOAD,2022-11-16 11:18:04,15.08847505,0.0001682,53.2178,127.5106,60.166,299.9499,-7.7044e-06,-4.11e-06,0.0,0 STARLINK-3753,1 52292U 22041AH  22320.47088590 -.00000411  00000-0 -77044-5 0  9994,2 52292  53.2178 127.5106 0001682  60.1660 299.9499 15.08847505 31958,6917.857,95.437,540.886,538.559,0.0
